<?xml version="1.0" encoding="ISO-8859-1"?><cdm xmlns:ndm="urn:ccsds:recommendation:navigation:schema:ndmxml" xmlns:xsi="http://www.w3.org/2001/XMLSchema-instance" id="CCSDS_CDM_VERS" version="1.0" xsi:noNamespaceSchemaLocation="http://sanaregistry.org/r/ndmxml/ndmxml-1.0-master.xsd"><header><COMMENT>Secondary = Almanac; Radius = DISCOS</COMMENT><COMMENT>EVENT_ID:CA-24001A-90094A-202312021836</COMMENT><CREATION_DATE>2023-11-27T03:13:34.263</CREATION_DATE><ORIGINATOR>CAESAR</ORIGINATOR><MESSAGE_FOR>SAT_1</MESSAGE_FOR><MESSAGE_ID>ALM_GEO_16139477</MESSAGE_ID></header><body><relativeMetadataData><TCA>2023-12-02T18:37:14.730</TCA><MISS_DISTANCE units="m">4938.317049507645</MISS_DISTANCE><RELATIVE_SPEED units="m/s">725.2595903427414</RELATIVE_SPEED><relativeStateVector><RELATIVE_POSITION_R units="m">662.5801336113352</RELATIVE_POSITION_R><RELATIVE_POSITION_T units="m">4859.136222837176</RELATIVE_POSITION_T><RELATIVE_POSITION_N units="m">580.308552334989</RELATIVE_POSITION_N><RELATIVE_VELOCITY_R units="m/s">-0.5135068081315864</RELATIVE_VELOCITY_R><RELATIVE_VELOCITY_T units="m/s">-85.92242955409758</RELATIVE_VELOCITY_T><RELATIVE_VELOCITY_N units="m/s">720.1517519206631</RELATIVE_VELOCITY_N></relativeStateVector><START_SCREEN_PERIOD>2023-11-27T01:19:07.215</START_SCREEN_PERIOD><STOP_SCREEN_PERIOD>2023-12-11T01:19:07.215</STOP_SCREEN_PERIOD><SCREEN_VOLUME_FRAME>RTN</SCREEN_VOLUME_FRAME><SCREEN_VOLUME_SHAPE>ELLIPSOID</SCREEN_VOLUME_SHAPE><SCREEN_VOLUME_X units="m">50000.0</SCREEN_VOLUME_X><SCREEN_VOLUME_Y units="m">50000.0</SCREEN_VOLUME_Y><SCREEN_VOLUME_Z units="m">50000.0</SCREEN_VOLUME_Z><SCREEN_ENTRY_TIME>2023-12-02T18:36:06.125</SCREEN_ENTRY_TIME><SCREEN_EXIT_TIME>2023-12-02T18:38:23.334</SCREEN_EXIT_TIME></relativeMetadataData><segment><metadata><OBJECT>OBJECT1</OBJECT><OBJECT_DESIGNATOR>00001</OBJECT_DESIGNATOR><CATALOG_NAME>SATCAT</CATALOG_NAME><OBJECT_NAME>SAT_1</OBJECT_NAME><INTERNATIONAL_DESIGNATOR>2024-001A</INTERNATIONAL_DESIGNATOR><OBJECT_TYPE>UNKNOWN</OBJECT_TYPE><EPHEMERIS_NAME>2024-001A_SAT_1_OPER_20231124T150500_S20231124T150000_E20231227T120000.jspoc</EPHEMERIS_NAME><COVARIANCE_METHOD>CALCULATED</COVARIANCE_METHOD><MANEUVERABLE>YES</MANEUVERABLE><REF_FRAME>ITRF</REF_FRAME></metadata><data><odParameters/><additionalParameters><COMMENT>JAC_LAST_ACC_OB = N/A</COMMENT><AREA_PC units="m**2">1231.6299839133426</AREA_PC></additionalParameters><stateVector><X units="km">41841.22133597218</X><Y units="km">-5327.605814963993</Y><Z units="km">-18.515583050643002</Z><X_DOT units="km/s">0.001704012862148204</X_DOT><Y_DOT units="km/s">-0.0023182438424678366</Y_DOT><Z_DOT units="km/s">0.003993003801980047</Z_DOT></stateVector><covarianceMatrix><CR_R units="m**2">1317.689999999998</CR_R><CT_R units="m**2">-5.498795863090322E-12</CT_R><CT_T units="m**2">227528.4304014197</CT_T><CN_R units="m**2">1.4210854715202004E-14</CN_R><CN_T units="m**2">-4.263256414560601E-14</CN_T><CN_N units="m**2">45329.991091261174</CN_N><CRDOT_R units="m**2/s">-9.897563048007554E-16</CRDOT_R><CRDOT_T units="m**2/s">-16.580403347157812</CRDOT_T><CRDOT_N units="m**2/s">0.0</CRDOT_N><CRDOT_RDOT units="m**2/s**2">0.0012082436233108505</CRDOT_RDOT><CTDOT_R units="m**2/s">0.09602242518867211</CTDOT_R><CTDOT_T units="m**2/s">-8.804082489852716E-16</CTDOT_T><CTDOT_N units="m**2/s">5.827586677109586E-19</CTDOT_N><CTDOT_RDOT units="m**2/s**2">-1.0440851406229044E-20</CTDOT_RDOT><CTDOT_TDOT units="m**2/s**2">6.997325728444596E-6</CTDOT_TDOT><CNDOT_R units="m**2/s">8.270160351341E-19</CNDOT_R><CNDOT_T units="m**2/s">2.614591013143269E-19</CNDOT_T><CNDOT_N units="m**2/s">2.229891644616966E-23</CNDOT_N><CNDOT_RDOT units="m**2/s**2">-1.0095410585133056E-22</CNDOT_RDOT><CNDOT_TDOT units="m**2/s**2">-3.1916394203409045E-23</CNDOT_TDOT><CNDOT_NDOT units="m**2/s**2">-2.7220356989953197E-27</CNDOT_NDOT><CDRG_R units="m**3/kg">0.0</CDRG_R><CDRG_T units="m**3/kg">0.0</CDRG_T><CDRG_N units="m**3/kg">0.0</CDRG_N><CDRG_RDOT units="m**3/(kg*s)">0.0</CDRG_RDOT><CDRG_TDOT units="m**3/(kg*s)">0.0</CDRG_TDOT><CDRG_NDOT units="m**3/(kg*s)">0.0</CDRG_NDOT><CDRG_DRG units="m**4/kg**2">0.0</CDRG_DRG><CSRP_R units="m**3/kg">0.0</CSRP_R><CSRP_T units="m**3/kg">0.0</CSRP_T><CSRP_N units="m**3/kg">0.0</CSRP_N><CSRP_RDOT units="m**3/(kg*s)">0.0</CSRP_RDOT><CSRP_TDOT units="m**3/(kg*s)">0.0</CSRP_TDOT><CSRP_NDOT units="m**3/(kg*s)">0.0</CSRP_NDOT><CSRP_DRG units="m**4/kg**2">0.0</CSRP_DRG><CSRP_SRP units="m**4/kg**2">0.0</CSRP_SRP></covarianceMatrix></data></segment><segment><metadata><OBJECT>OBJECT2</OBJECT><OBJECT_DESIGNATOR>20923</OBJECT_DESIGNATOR><CATALOG_NAME>SATCAT</CATALOG_NAME><OBJECT_NAME>GORIZONT 21</OBJECT_NAME><INTERNATIONAL_DESIGNATOR>1990-094A</INTERNATIONAL_DESIGNATOR><OBJECT_TYPE>UNKNOWN</OBJECT_TYPE><EPHEMERIS_NAME>almLe20231126_104510Au20231126_050111</EPHEMERIS_NAME><COVARIANCE_METHOD>CALCULATED</COVARIANCE_METHOD><MANEUVERABLE>NO</MANEUVERABLE><REF_FRAME>ITRF</REF_FRAME><GRAVITY_MODEL>EIGEN GL04S: 24D 24O</GRAVITY_MODEL><ATMOSPHERIC_MODEL>NONE</ATMOSPHERIC_MODEL><N_BODY_PERTURBATIONS>MOON,SUN</N_BODY_PERTURBATIONS><SOLAR_RAD_PRESSURE>YES</SOLAR_RAD_PRESSURE><EARTH_TIDES>NO</EARTH_TIDES></metadata><data><odParameters><TIME_LASTOB_START>2023-11-26T05:01:11.553</TIME_LASTOB_START><TIME_LASTOB_END>2023-11-26T05:01:11.553</TIME_LASTOB_END><RECOMMENDED_OD_SPAN units="d">14.0</RECOMMENDED_OD_SPAN><ACTUAL_OD_SPAN units="d">13.32645894675926</ACTUAL_OD_SPAN><OBS_AVAILABLE>871</OBS_AVAILABLE><OBS_USED>871</OBS_USED><TRACKS_AVAILABLE>28</TRACKS_AVAILABLE><TRACKS_USED>28</TRACKS_USED><RESIDUALS_ACCEPTED units="%">100.0</RESIDUALS_ACCEPTED><WEIGHTED_RMS>0.5936241866096321</WEIGHTED_RMS></odParameters><additionalParameters><COMMENT>JAC_LAST_ACC_OB = Greater Than (&gt;) 48 Hours</COMMENT><AREA_PC units="m**2">101.93376457451753</AREA_PC><CR_AREA_OVER_MASS units="m**2/kg">0.0025396633342139392</CR_AREA_OVER_MASS></additionalParameters><stateVector><X units="km">41842.49252322264</X><Y units="km">-5322.870071221098</Y><Z units="km">-17.92924743218134</Z><X_DOT units="km/s">-0.009462731409575376</X_DOT><Y_DOT units="km/s">-0.08845651126427939</Y_DOT><Z_DOT units="km/s">0.7240327933508074</Z_DOT></stateVector><covarianceMatrix><CR_R units="m**2">9144.72426224763</CR_R><CT_R units="m**2">7590.62438217292</CT_R><CT_T units="m**2">7737.809128639945</CT_T><CN_R units="m**2">-320.22577234823484</CN_R><CN_T units="m**2">-224.26475683096078</CN_T><CN_N units="m**2">102.21364371684308</CN_N><CRDOT_R units="m**2/s">-0.6507452006346669</CRDOT_R><CRDOT_T units="m**2/s">-0.6534404500858467</CRDOT_T><CRDOT_N units="m**2/s">0.019354104344821516</CRDOT_N><CRDOT_RDOT units="m**2/s**2">5.592934571474326E-5</CRDOT_RDOT><CTDOT_R units="m**2/s">-0.6709570065126471</CTDOT_R><CTDOT_T units="m**2/s">-0.558013186427515</CTDOT_T><CTDOT_N units="m**2/s">0.02343588019361413</CTDOT_N><CTDOT_RDOT units="m**2/s**2">4.78317617169798E-5</CTDOT_RDOT><CTDOT_TDOT units="m**2/s**2">4.922968014432536E-5</CTDOT_TDOT><CNDOT_R units="m**2/s">0.006100531334599712</CNDOT_R><CNDOT_T units="m**2/s">0.008276915811410018</CNDOT_T><CNDOT_N units="m**2/s">-0.016834290279157005</CNDOT_N><CNDOT_RDOT units="m**2/s**2">-7.698095360179158E-7</CNDOT_RDOT><CNDOT_TDOT units="m**2/s**2">-4.48801925706274E-7</CNDOT_TDOT><CNDOT_NDOT units="m**2/s**2">4.010733743599294E-6</CNDOT_NDOT><CDRG_R units="m**3/kg">0.0</CDRG_R><CDRG_T units="m**3/kg">0.0</CDRG_T><CDRG_N units="m**3/kg">0.0</CDRG_N><CDRG_RDOT units="m**3/(kg*s)">0.0</CDRG_RDOT><CDRG_TDOT units="m**3/(kg*s)">0.0</CDRG_TDOT><CDRG_NDOT units="m**3/(kg*s)">0.0</CDRG_NDOT><CDRG_DRG units="m**4/kg**2">0.0</CDRG_DRG><CSRP_R units="m**3/kg">0.0</CSRP_R><CSRP_T units="m**3/kg">0.0</CSRP_T><CSRP_N units="m**3/kg">0.0</CSRP_N><CSRP_RDOT units="m**3/(kg*s)">0.0</CSRP_RDOT><CSRP_TDOT units="m**3/(kg*s)">0.0</CSRP_TDOT><CSRP_NDOT units="m**3/(kg*s)">0.0</CSRP_NDOT><CSRP_DRG units="m**4/kg**2">0.0</CSRP_DRG><CSRP_SRP units="m**4/kg**2">0.0</CSRP_SRP></covarianceMatrix></data></segment></body></cdm>